      2.10          N: GNSS NAV DATA                        RINEX VERSION / TYPE
fic2rin                                 01/13/2023 00:17:50 PGM / RUN BY / DATE
                                                            END OF HEADER
16 23  1 12  4  0  0.0 -.524091534317D-03  .113686837722D-11  .000000000000D+00
     .800000000000D+02 -.462500000000D+01  .466983737461D-08 -.883425253705D+00
     .167638063431D-07  .132907178486D-01  .589154660702D-05  .515376290131D+04
     .360000000000D+06  .191852450371D-06  .275003511320D+01  .189989805222D-06
     .966608282498D+00  .264843750000D+03  .752165195294D+00 -.821284209784D-08
    -.212866009581D-09  .100000000000D+01  .224400000000D+04  .000000000000D+00
     .240000000000D+01  .000000000000D+00 -.102445483208D-07  .800000000000D+02
     .352800000000D+06  .400000000000D+01
9  23  1 12  4  0  0.0 -.237960368395D-03  .648014975013D-11  .000000000000D+00
     .930000000000D+02 -.805937500000D+02  .451911681078D-08 -.138283382549D+01
    -.419281423092D-05  .258925987873D-02  .100955367088D-04  .515369699860D+04
     .360000000000D+06 -.372529029846D-08  .545412650878D+00  .372529029846D-07
     .955662722114D+00  .182125000000D+03  .195440359353D+01 -.803890628129D-08
    -.810748056625D-10  .100000000000D+01  .224400000000D+04  .000000000000D+00
     .240000000000D+01  .000000000000D+00  .931322574615D-09  .930000000000D+02
     .352800000000D+06  .400000000000D+01
15 23  1 12  4  0  0.0  .387290492654D-05  .329691829393D-11  .000000000000D+00
     .910000000000D+02 -.855625000000D+02  .493127683605D-08 -.270215082158D+01
    -.444985926151D-05  .147385451710D-01  .848248600960D-05  .515366748238D+04
     .360000000000D+06  .167638063431D-06  .430641760952D+00 -.838190317154D-07
     .931891813057D+00  .198031250000D+03  .117255226185D+01 -.802890586473D-08
    -.150006248362D-10  .100000000000D+01  .224400000000D+04  .000000000000D+00
     .240000000000D+01  .000000000000D+00 -.107102096081D-07  .910000000000D+02
     .352800000000D+06  .400000000000D+01
21 23  1 12  4  0  0.0  .153381843120D-03  .227373675443D-12  .000000000000D+00
     .700000000000D+02  .966562500000D+02  .444197074020D-08 -.176877154706D+01
     .516697764397D-05  .247868543956D-01  .774860382080D-05  .515366866493D+04
     .360000000000D+06 -.564381480217D-06 -.161188241470D+01  .229105353355D-06
     .961129265155D+00  .240250000000D+03 -.838974300613D+00 -.819498421113D-08
     .309298597814D-09  .100000000000D+01  .224400000000D+04  .000000000000D+00
     .240000000000D+01  .000000000000D+00 -.102445483208D-07  .700000000000D+02
     .352800000000D+06  .400000000000D+01
20 23  1 12  4  0  0.0  .457619316876D-03 -.238742359215D-11  .000000000000D+00
     .550000000000D+02 -.244062500000D+02  .503270963256D-08 -.301870715165D+01
    -.134110450745D-05  .458407821134D-02  .311061739922D-05  .515372425652D+04
     .360000000000D+06 -.121071934700D-06 -.644656371154D+00 -.186264514923D-08
     .946605692418D+00  .309968750000D+03 -.295384810660D+01 -.848071039849D-08
    -.664313385605D-10  .100000000000D+01  .224400000000D+04  .000000000000D+00
     .240000000000D+01  .000000000000D+00 -.838190317154D-08  .550000000000D+02
     .352800000000D+06  .400000000000D+01
11 23  1 12  4  0  0.0 -.767665915191D-04 -.875388650456D-11  .000000000000D+00
     .186000000000D+03  .621875000000D+02  .450661629009D-08 -.246983801448D+01
     .335834920406D-05  .794377061538D-03  .604428350925D-05  .515369173813D+04
     .360000000000D+06  .242143869400D-07 -.147581981421D+01 -.800937414169D-07
     .964392179582D+00  .263156250000D+03 -.269865025611D+01 -.817676916669D-08
     .201794119821D-09  .100000000000D+01  .224400000000D+04  .000000000000D+00
     .240000000000D+01  .000000000000D+00 -.884756445885D-08  .442000000000D+03
     .352800000000D+06  .400000000000D+01
26 23  1 12  4  0  0.0  .240156427026D-03  .568434188608D-12  .000000000000D+00
     .390000000000D+02 -.218750000000D+00  .544236955368D-08  .565874780099D-01
     .689178705215D-07  .776002602652D-02  .509433448315D-05  .515361550522D+04
     .360000000000D+06  .894069671631D-07  .259783225165D+01  .614672899246D-07
     .935124575281D+00  .266031250000D+03  .430080490487D+00 -.864107422114D-08
    -.141077305007D-09  .100000000000D+01  .224400000000D+04  .000000000000D+00
     .240000000000D+01  .000000000000D+00  .698491930962D-08  .390000000000D+02
     .352800000000D+06  .400000000000D+01
14 23  1 12  4  0  0.0 -.510928221047D-04  .750333128963D-11  .000000000000D+00
     .960000000000D+02  .312500000000D+00  .508592613495D-08  .969162629628D+00
     .186264514923D-08  .253808661364D-02  .586919486523D-05  .515365690041D+04
     .360000000000D+06 -.186264514923D-08  .269514751381D+01  .428408384323D-07
     .950156292612D+00  .260437500000D+03 -.307148755359D+01 -.835106214097D-08
    -.186793494985D-09  .100000000000D+01  .224400000000D+04  .000000000000D+00
     .240000000000D+01  .000000000000D+00 -.791624188423D-08  .608000000000D+03
     .352800000000D+06  .400000000000D+01
12 23  1 12  4  0  0.0 -.327056273818D-03 -.454747350886D-11  .000000000000D+00
     .770000000000D+02  .231250000000D+01  .466055127352D-08  .936142706284D+00
    -.186264514923D-08  .882365554571D-02  .615976750851D-05  .515367500877D+04
     .360000000000D+06 -.115483999252D-06  .273166098647D+01  .204890966415D-07
     .966826096371D+00  .264250000000D+03  .132495795407D+01 -.826641575797D-08
    -.217151902391D-09  .100000000000D+01  .224400000000D+04  .000000000000D+00
     .485000000000D+01  .000000000000D+00 -.125728547573D-07  .770000000000D+02
     .352800000000D+06  .400000000000D+01
29 23  1 12  4  0  0.0 -.579874496907D-03 -.216004991671D-11  .000000000000D+00
     .900000000000D+02  .260625000000D+02  .405016870578D-08 -.174700284621D+01
     .135228037834D-05  .212709128391D-02  .983662903309D-05  .515359907913D+04
     .360000000000D+06 -.540167093277D-07 -.249935933998D+01  .745058059692D-08
     .978464731749D+00  .203750000000D+03  .242716191749D+01 -.776532345689D-08
    -.172507185617D-09  .100000000000D+01  .224400000000D+04  .000000000000D+00
     .240000000000D+01  .000000000000D+00 -.102445483208D-07  .900000000000D+02
     .352800000000D+06  .400000000000D+01
31 23  1 12  4  0  0.0 -.206069555134D-03 -.113686837722D-11  .000000000000D+00
     .112000000000D+03  .338437500000D+02  .470948188311D-08  .113752015174D+01
     .197626650333D-05  .107904480537D-01  .842474400997D-05  .515363863373D+04
     .360000000000D+06 -.158324837685D-06  .163658410392D+01  .106170773506D-06
     .954174928576D+00  .215375000000D+03  .491876907756D+00 -.813569602725D-08
     .220009164265D-09  .100000000000D+01  .224400000000D+04  .000000000000D+00
     .240000000000D+01  .000000000000D+00 -.135041773319D-07  .112000000000D+03
     .352800000000D+06  .400000000000D+01
30 23  1 12  4  0  0.0 -.533475074917D-03  .909494701773D-12  .000000000000D+00
     .660000000000D+02  .244687500000D+02  .514735726523D-08  .158481749543D+01
     .139512121677D-05  .601446896326D-02  .888668000698D-05  .515365618706D+04
     .360000000000D+06 -.502914190292D-07  .162531797283D+01  .912696123123D-07
     .935184064844D+00  .195625000000D+03 -.266470338837D+01 -.835856245339D-08
     .322513433979D-09  .100000000000D+01  .224400000000D+04  .000000000000D+00
     .240000000000D+01  .000000000000D+00  .372529029846D-08  .660000000000D+02
     .352800000000D+06  .400000000000D+01
19 23  1 12  4  0  0.0  .262947753072D-03  .511590769747D-11  .000000000000D+00
     .840000000000D+02  .176562500000D+02  .413052919598D-08  .365959041423D+00
     .895932316780D-06  .904497841839D-02  .101849436760D-04  .515360301590D+04
     .360000000000D+06 -.111758708954D-07 -.246849325630D+01 -.135973095894D-06
     .975244667655D+00  .193937500000D+03  .222739419248D+01 -.795283126734D-08
    -.242867259253D-09  .100000000000D+01  .224400000000D+04  .000000000000D+00
     .240000000000D+01  .000000000000D+00 -.153668224812D-07  .840000000000D+02
     .352800000000D+06  .400000000000D+01
17 23  1 12  4  0  0.0  .692745670676D-03  .261479726760D-11  .000000000000D+00
     .960000000000D+02  .274062500000D+02  .407731269358D-08 -.175077344148D+01
     .169314444065D-05  .137775263283D-01  .103618949652D-04  .515369845581D+04
     .360000000000D+06  .260770320892D-07 -.251312227578D+01  .327825546265D-06
     .976283326325D+00  .187812500000D+03 -.143147427314D+01 -.770746390395D-08
    -.270725562521D-09  .100000000000D+01  .224400000000D+04  .000000000000D+00
     .240000000000D+01  .000000000000D+00 -.111758708954D-07  .960000000000D+02
     .352800000000D+06  .400000000000D+01
25 23  1 12  4  0  0.0  .410523265600D-03  .341060513165D-11  .000000000000D+00
     .940000000000D+02  .637500000000D+01  .497842165696D-08  .853603838358D+00
     .240281224251D-06  .110963792540D-01  .594183802605D-05  .515355877686D+04
     .360000000000D+06 -.949949026108D-07  .265095809098D+01  .800937414169D-07
     .954374678336D+00  .262531250000D+03  .101465986466D+01 -.846928135099D-08
    -.236081262304D-09  .100000000000D+01  .224400000000D+04  .000000000000D+00
     .240000000000D+01  .000000000000D+00  .558793544769D-08  .940000000000D+02
     .352800000000D+06  .400000000000D+01
23 23  1 12  4  0  0.0  .223470851779D-05  .113686837722D-11  .000000000000D+00
     .217000000000D+03 -.390000000000D+02  .450947355196D-08  .144664417771D+01
    -.194832682610D-05  .296138599515D-02  .366196036339D-05  .515364580727D+04
     .360000000000D+06  .819563865662D-07 -.509050667775D+00  .186264514923D-07
     .972082590707D+00  .314656250000D+03 -.313466065431D+01 -.827927343640D-08
    -.163935399996D-09  .100000000000D+01  .224400000000D+04  .000000000000D+00
     .240000000000D+01  .000000000000D+00 -.838190317154D-08  .217000000000D+03
     .352800000000D+06  .400000000000D+01
